IRIDIUM 144             
1 43249U 18030A   25170.50406756  .00000208  00000+0  67107-4 0  9996
2 43249  86.3959  82.0363 0002261  82.0276 278.1176 14.34217601378157
IRIDIUM 149             
1 43250U 18030B   25170.16156718  .00000211  00000+0  68437-4 0  9991
2 43250  86.3958  82.1508 0002239  80.9924 279.1525 14.34216996378124
IRIDIUM 157             
1 43251U 18030C   25170.45966977  .00000029  00000+0  31352-5 0  9994
2 43251  86.3961  82.0713 0002130  89.9732 270.1708 14.34217642378147
IRIDIUM 140             
1 43252U 18030D   25170.47869747  .00000193  00000+0  61838-4 0  9997
2 43252  86.3961  82.0769 0002374  80.7641 279.3824 14.34217686378202
IRIDIUM 145             
1 43253U 18030E   25170.46601191  .00000257  00000+0  84668-4 0  9991
2 43253  86.3961  82.0550 0002205  73.1922 286.9516 14.34217934378132
IRIDIUM 146             
1 43254U 18030F   25170.16790991 -.00000053  00000+0 -25854-4 0  9994
2 43254  86.3959  82.1930 0002126  72.6556 287.4872 14.34218357378100
IRIDIUM 148             
1 43255U 18030G   25170.48503983  .00000215  00000+0  69863-4 0  9999
2 43255  86.3962  82.0981 0002073  83.6429 276.5002 14.34217634378181
IRIDIUM 142             
1 43256U 18030H   25170.45332620 -.00000019  00000+0 -13958-4 0  9993
2 43256  86.3958  82.0137 0001982  68.5795 291.5612 14.34217372378145
